#aV2006 10 11  0  0   .00000000      96 DD+AD WGS84 FIT  NGA
## 1396 259200.00000000   900.00000000 54019  .0000000000000
+   30     1  2  3  4  5  6  7  8  9 10 11 13 14 15 16 17 18
+         19 20 21 22 23 24 25 26 27 28 29 30 31  0  0  0  0
+          0  0  0  0  0  0  0  0  0  0  0  0  0  0  0  0  0
+          0  0  0  0  0  0  0  0  0  0  0  0  0  0  0  0  0
+          0  0  0  0  0  0  0  0  0  0  0  0  0  0  0  0  0
++         0  0  0  0  0  0  0  0  0  0  0  0  0  0  0  0  0
++         0  0  0  0  0  0  0  0  0  0  0  0  0  0  0  0  0
++         0  0  0  0  0  0  0  0  0  0  0  0  0  0  0  0  0
++         0  0  0  0  0  0  0  0  0  0  0  0  0  0  0  0  0
++         0  0  0  0  0  0  0  0  0  0  0  0  0  0  0  0  0
%c cc cc ccc ccc cccc cccc cccc cccc ccccc ccccc ccccc ccccc
%c cc cc ccc ccc cccc cccc cccc cccc ccccc ccccc ccccc ccccc
%f  0.0000000  0.000000000  0.00000000000  0.000000000000000
%f  0.0000000  0.000000000  0.00000000000  0.000000000000000
%i    0    0    0    0      0      0      0      0         0
%i    0    0    0    0      0      0      0      0         0
/*      NGA, ST. LOUIS,MO.                                  
/*   EPHEMERIS COMPUTED FROM  3 DAYS OF DATA                
/* CCCCCCCCCCCCCCCCCCCCCCCCCCCCCCCCCCCCCCCCCCCCCCCCCCCCCCCCC
/* CCCCCCCCCCCCCCCCCCCCCCCCCCCCCCCCCCCCCCCCCCCCCCCCCCCCCCCCC
*  2006 10 11  4 45   .00000000                                                 
P  1 -14655.134966  18569.778422 -11809.455764     81.852754                    
V  1   3383.060132 -15011.588598 -27402.113413       .023434                    
P  2  20433.591991 -12781.513310  10654.639598     43.575372                    
V  2  14307.024383   -336.998615 -27463.295582       .037685                    
P  3 -11294.489542  22020.003191   9011.335349    265.640585                    
V  3  -1434.157643 -12378.114569  28202.002077       .685058                    
P  4  26254.427974  -5077.280075   -962.109173    322.366419                    
V  4   -506.402112   3090.565928 -31209.118243       .050533                    
P  5  -9224.450794 -21315.100608 -13254.612880    361.674740                    
V  5  13995.036997   9046.263470 -24547.825041       .045501                    
P  6  -9919.370017 -16363.276397  18586.990730    582.567958                    
V  6   7671.292313 -22101.589382 -15581.967772      -.078635                    
P  7 -16616.965258   8145.338436  19421.185495    515.427988                    
V  7   4070.241491 -23704.275128  13574.830216      -.056555                    
P  8  25071.789939   1488.005961   9136.304696    -82.629226                    
V  8 -11091.406975   4032.399583  28912.304127      -.012805                    
P  9   2250.219295 -16162.280495 -21489.130716     39.732037                    
V  9  25239.721705  -6289.140856   7823.502029       .016833                    
P 10   8111.751986 -12989.306148  21570.452867     90.932649                    
V 10  18892.778750  20160.513947   5314.292921       .005962                    
P 11   2100.469249  16840.193943 -20476.468946    354.566730                    
V 11 -24572.206683   9033.999602   5201.201965       .017525                    
P 13   8662.289374  15160.405873  19936.959727    102.164530                    
V 13  -8735.636056  23885.769853 -14262.774883       .034810                    
P 14 -15635.078787   3161.768605 -21147.486551     -3.740434                    
V 14   7529.529032 -25903.530633  -9476.421886       .008274                    
P 15 -25567.385599  -1434.928059   7709.273684    -15.456255                    
V 15   9348.267224  -4010.917424  29308.737772      -.106725                    
P 16 -11156.090888  10346.527928  21847.454144     80.973300                    
V 16 -18728.492431 -20206.921045    125.901820       .035247                    
P 17  16090.616564  -2556.746044 -20961.938347     93.175042                    
V 17  -6930.773852  25722.837819  -8563.468371      -.012826                    
P 18 -19598.624332 -17518.305437  -4752.337567   -250.724598                    
V 18  -2019.262796  -6372.756606  30675.800062      -.006960                    
P 19  -7929.216267  25232.469257  -1808.799058     23.261274                    
V 19  -3618.079653   1254.243481  31640.984843       .034601                    
P 20  11660.830397  21900.302179  -9606.344886    -22.113263                    
V 20 -10274.956495  -6867.979655 -28357.718839       .001556                    
P 21 -21318.347630  -6739.025196  14828.500788     56.596903                    
V 21  17740.498529  -5689.277274  22507.424475       .016876                    
P 22 -20301.146715  -6778.786900 -15581.591497    141.006365                    
V 22 -11396.062149 -16682.404506  21851.836116       .029618                    
P 23   1660.938240  23444.103105  12097.537765    138.622328                    
V 23  -6629.775920  14252.602999 -26704.948913       .004499                    
P 24  26368.005422  -4327.041734   -724.399924     42.983741                    
V 24   -667.529408   2802.186463 -31483.483800       .031620                    
P 25 -23601.881475  11556.902275   4769.384245    374.833662                    
V 25  -6124.489673   -812.631644 -30782.061426       .166744                    
P 26   7485.397033 -25138.920908  -1236.062170   -288.651402                    
V 26   2539.369228   -311.031411  32760.272636      -.154106                    
P 27  18960.484943   7315.738146  17871.150693     72.193764                    
V 27 -20072.401385   7470.199392  18597.552802       .019372                    
P 28  21094.840446  10407.219249 -12371.256610     16.790332                    
V 28   9174.934527  13349.258693  25900.312316      -.009001                    
P 29   9608.434922 -24348.807242   3593.992974     56.331004                    
V 29    861.467222   4742.462540  32123.267025       .499642                    
P 30 -17980.911068 -19574.915991  -1818.405700     12.788523                    
V 30   3636.733908   -911.418897 -31211.803400       .011304                    
P 31 -24878.055027   8677.539583   3690.735711    -80.807571                    
V 31  -4983.228185  -1665.379751 -31232.247697       .150283                    
EOF
